{
  "type": "FeatureCollection",
  "features": [
    {
      "type": "Feature",
      "geometry": {
        "type": "Point",
        "coordinates": [
          -82.49779510498047,
          28.803722381591797
        ]
      },
      "properties": {
        "id": "120c9fd9-cd71-4a09-9628-ac4647dc9d20",
        "incident_number": "261100680",
        "incident_code": "2026-FLFLS-261100680",
        "name": "IB S GATE PT (09)",
        "status": "Active",
        "category": "Wildfire",
        "acres": 0.0,
        "containment_percent": 0,
        "county": "Citrus",
        "field_unit": "Withlacoochee",
        "region": "Region 3",
        "protecting_unit": "FLFLS - Florida Forest Service",
        "resources_assigned": 3,
        "discovery_time": "2026-10-02T19:13:00",
        "status_updated_time": "2026-10-02T19:14:00",
        "is_obscured": false
      }
    },
    {
      "type": "Feature",
      "geometry": {
        "type": "Point",
        "coordinates": [
          -82.7057876586914,
          29.611785888671875
        ]
      },
      "properties": {
        "id": "93c0add0-0208-4193-a7d2-56aef33fd33a",
        "incident_number": "260800824",
        "incident_code": "2026-FLFLS-260800824",
        "name": "91ST TRAIL (21)",
        "status": "Active",
        "category": "Wildfire",
        "acres": 1.0,
        "containment_percent": 95,
        "county": "Gilchrist",
        "field_unit": "Waccasassa",
        "region": "Region 2",
        "protecting_unit": "FLFLS - Florida Forest Service",
        "resources_assigned": 0,
        "discovery_time": "2026-10-02T16:42:00",
        "status_updated_time": "2026-10-02T17:22:00",
        "is_obscured": false
      }
    },
    {
      "type": "Feature",
      "geometry": {
        "type": "Point",
        "coordinates": [
          -81.44139099121094,
          28.991111755371094
        ]
      },
      "properties": {
        "id": "2fd91f10-0689-475e-8da4-53ee2ba4610d",
        "incident_number": "261100678",
        "incident_code": "2026-FLFLS-261100678",
        "name": "LAKE MACK (35)",
        "status": "Contained",
        "category": "Wildfire",
        "acres": 3.0,
        "containment_percent": 100,
        "county": "Lake",
        "field_unit": "Withlacoochee",
        "region": "Region 3",
        "protecting_unit": "FLFLS - Florida Forest Service",
        "resources_assigned": 0,
        "discovery_time": "2026-10-01T18:40:32",
        "status_updated_time": "2026-10-01T20:07:00",
        "is_obscured": false
      }
    },
    {
      "type": "Feature",
      "geometry": {
        "type": "Point",
        "coordinates": [
          -81.6419448852539,
          29.443889617919922
        ]
      },
      "properties": {
        "id": "a1fc53cd-d191-4cda-abca-4386edc9e9a2",
        "incident_number": "260800821",
        "incident_code": "2026-FLFLS-260800821",
        "name": "OAKRUN ROAD (54)",
        "status": "Contained",
        "category": "Wildfire",
        "acres": 3.1,
        "containment_percent": 100,
        "county": "Putnam",
        "field_unit": "Waccasassa",
        "region": "Region 2",
        "protecting_unit": "FLFLS - Florida Forest Service",
        "resources_assigned": 0,
        "discovery_time": "2026-09-30T19:42:00",
        "status_updated_time": "2026-09-30T20:47:00",
        "is_obscured": false
      }
    },
    {
      "type": "Feature",
      "geometry": {
        "type": "Point",
        "coordinates": [
          -81.82710266113281,
          28.573368072509766
        ]
      },
      "properties": {
        "id": "946a2966-6245-4aae-a556-e7de89c12c08",
        "incident_number": "261100676",
        "incident_code": "2026-FLFLS-261100676",
        "name": "SILVER EAGLE (35)",
        "status": "Active",
        "category": "Wildfire",
        "acres": 281.0,
        "containment_percent": 90,
        "county": "Lake",
        "field_unit": "Withlacoochee",
        "region": "Region 3",
        "protecting_unit": "FLFLS - Florida Forest Service",
        "resources_assigned": 0,
        "discovery_time": "2026-09-30T15:12:06",
        "status_updated_time": "2026-09-30T15:15:41",
        "is_obscured": false
      }
    },
    {
      "type": "Feature",
      "geometry": {
        "type": "Point",
        "coordinates": [
          -82.5838851928711,
          28.924165725708008
        ]
      },
      "properties": {
        "id": "6f1fb3c8-67ad-4467-92e3-5d4d08381380",
        "incident_number": "261100673",
        "incident_code": "2026-FLFLS-261100673",
        "name": "HIDDEN OAKS  (09)",
        "status": "Contained",
        "category": "Wildfire",
        "acres": 0.76,
        "containment_percent": 100,
        "county": "Citrus",
        "field_unit": "Withlacoochee",
        "region": "Region 3",
        "protecting_unit": "FLFLS - Florida Forest Service",
        "resources_assigned": 0,
        "discovery_time": "2026-09-29T21:32:21",
        "status_updated_time": "2026-09-29T23:55:15",
        "is_obscured": false
      }
    },
    {
      "type": "Feature",
      "geometry": {
        "type": "Point",
        "coordinates": [
          -82.10865020751953,
          30.026063919067383
        ]
      },
      "properties": {
        "id": "23aba78c-59ef-4a99-b15b-4ec589da08f5",
        "incident_number": "260601060",
        "incident_code": "2026-FLFLS-260601060",
        "name": "NW 38TH AVE (04)",
        "status": "Contained",
        "category": "Wildfire",
        "acres": 0.75,
        "containment_percent": 100,
        "county": "Bradford",
        "field_unit": "Suwannee",
        "region": "Region 2",
        "protecting_unit": "FLFLS - Florida Forest Service",
        "resources_assigned": 0,
        "discovery_time": "2026-09-29T20:14:00",
        "status_updated_time": "2026-09-29T22:27:00",
        "is_obscured": false
      }
    },
    {
      "type": "Feature",
      "geometry": {
        "type": "Point",
        "coordinates": [
          -84.17156219482422,
          30.194141387939453
        ]
      },
      "properties": {
        "id": "fc3eccc6-0b72-40e9-a62c-a514f7a2f6d4",
        "incident_number": "260400510",
        "incident_code": "2026-FLFLS-260400510",
        "name": "LIGHTHOUSE  RD (65) 0510",
        "status": "Contained",
        "category": "Wildfire",
        "acres": 3.0,
        "containment_percent": 100,
        "county": "Wakulla",
        "field_unit": "Tallahassee",
        "region": "Region 1",
        "protecting_unit": "FLFLS - Florida Forest Service",
        "resources_assigned": 0,
        "discovery_time": "2026-09-29T17:39:00",
        "status_updated_time": "2026-09-29T21:39:00",
        "is_obscured": false
      }
    },
    {
      "type": "Feature",
      "geometry": {
        "type": "Point",
        "coordinates": [
          -82.04486846923828,
          29.351320266723633
        ]
      },
      "properties": {
        "id": "fb9b2409-869d-428c-864b-601ec14e6c4d",
        "incident_number": "260800819",
        "incident_code": "2026-FLFLS-260800819",
        "name": "NE 65TH AVE (42)",
        "status": "Contained",
        "category": "Wildfire",
        "acres": 0.25,
        "containment_percent": 100,
        "county": "Marion",
        "field_unit": "Waccasassa",
        "region": "Region 2",
        "protecting_unit": "FLFLS - Florida Forest Service",
        "resources_assigned": 0,
        "discovery_time": "2026-09-29T17:02:00",
        "status_updated_time": "2026-10-01T14:21:00",
        "is_obscured": false
      }
    },
    {
      "type": "Feature",
      "geometry": {
        "type": "Point",
        "coordinates": [
          -83.60944366455078,
          30.091968536376953
        ]
      },
      "properties": {
        "id": "0056fc2d-ddb1-4188-b600-4d807b6378c1",
        "incident_number": "260500281",
        "incident_code": "2026-FLFLS-260500281",
        "name": "3635 Golf Course Road- Taylor (62)",
        "status": "Contained",
        "category": "Wildfire",
        "acres": 0.0,
        "containment_percent": 100,
        "county": "Taylor",
        "field_unit": "Perry",
        "region": "Region 2",
        "protecting_unit": "FLFLS - Florida Forest Service",
        "resources_assigned": 0,
        "discovery_time": "2026-09-28T21:21:00",
        "status_updated_time": "2026-09-29T01:29:41",
        "is_obscured": false
      }
    },
    {
      "type": "Feature",
      "geometry": {
        "type": "Point",
        "coordinates": [
          -83.11282348632812,
          30.558074951171875
        ]
      },
      "properties": {
        "id": "6998f3d2-f005-4b76-af8d-2b5406e0a1d4",
        "incident_number": "260601056",
        "incident_code": "2026-FLFLS-260601056",
        "name": "27TH WAY (24-04)",
        "status": "Contained",
        "category": "Wildfire",
        "acres": 0.0,
        "containment_percent": 100,
        "county": "Hamilton",
        "field_unit": "Suwannee",
        "region": "Region 2",
        "protecting_unit": "FLFLS - Florida Forest Service",
        "resources_assigned": 0,
        "discovery_time": "2026-09-28T13:44:00",
        "status_updated_time": "2026-09-29T04:01:00",
        "is_obscured": false
      }
    },
    {
      "type": "Feature",
      "geometry": {
        "type": "Point",
        "coordinates": [
          -85.50125122070312,
          30.930204391479492
        ]
      },
      "properties": {
        "id": "997493c2-cc57-4adf-a453-45f03ecde2a2",
        "incident_number": "260200568",
        "incident_code": "2026-FLFLS-260200568",
        "name": "Heisler Road (32)",
        "status": "Contained",
        "category": "Wildfire",
        "acres": 7.5,
        "containment_percent": 100,
        "county": "Jackson",
        "field_unit": "Chipola",
        "region": "Region 1",
        "protecting_unit": "FLFLS - Florida Forest Service",
        "resources_assigned": 0,
        "discovery_time": "2026-09-27T22:25:08",
        "status_updated_time": "2026-09-28T14:27:06",
        "is_obscured": false
      }
    },
    {
      "type": "Feature",
      "geometry": {
        "type": "Point",
        "coordinates": [
          -82.53472137451172,
          28.795000076293945
        ]
      },
      "properties": {
        "id": "c7b68e80-579e-43b0-ba72-265673154ab6",
        "incident_number": "261100665",
        "incident_code": "2026-FLFLS-261100665",
        "name": "EVERGREEN (09)",
        "status": "Contained",
        "category": "Wildfire",
        "acres": 5.0,
        "containment_percent": 100,
        "county": "Citrus",
        "field_unit": "Withlacoochee",
        "region": "Region 3",
        "protecting_unit": "FLFLS - Florida Forest Service",
        "resources_assigned": 0,
        "discovery_time": "2026-09-27T18:44:45",
        "status_updated_time": "2026-09-27T20:06:43",
        "is_obscured": false
      }
    },
    {
      "type": "Feature",
      "geometry": {
        "type": "Point",
        "coordinates": [
          -82.57444763183594,
          28.809444427490234
        ]
      },
      "properties": {
        "id": "85f9ebf9-dc6f-4084-863f-e40dd17d2ec0",
        "incident_number": "261100663",
        "incident_code": "2026-FLFLS-261100663",
        "name": "MICHIGAN (09)",
        "status": "Contained",
        "category": "Wildfire",
        "acres": 2.0,
        "containment_percent": 100,
        "county": "Citrus",
        "field_unit": "Withlacoochee",
        "region": "Region 3",
        "protecting_unit": "FLFLS - Florida Forest Service",
        "resources_assigned": 0,
        "discovery_time": "2026-09-26T21:02:00",
        "status_updated_time": "2026-09-27T02:01:00",
        "is_obscured": false
      }
    },
    {
      "type": "Feature",
      "geometry": {
        "type": "Point",
        "coordinates": [
          -82.26898193359375,
          28.802915573120117
        ]
      },
      "properties": {
        "id": "c8254c01-7339-4323-81fa-8119a4a21194",
        "incident_number": "261100662",
        "incident_code": "2026-FLFLS-261100662",
        "name": "KILLDEER (09)",
        "status": "Contained",
        "category": "Wildfire",
        "acres": 2.0,
        "containment_percent": 100,
        "county": "Citrus",
        "field_unit": "Withlacoochee",
        "region": "Region 3",
        "protecting_unit": "FLFLS - Florida Forest Service",
        "resources_assigned": 0,
        "discovery_time": "2026-09-26T18:43:49",
        "status_updated_time": "2026-09-26T21:23:00",
        "is_obscured": false
      }
    },
    {
      "type": "Feature",
      "geometry": {
        "type": "Point",
        "coordinates": [
          -82.5713882446289,
          28.821388244628906
        ]
      },
      "properties": {
        "id": "d8dc6472-e98e-4a0f-a032-bee29cb315be",
        "incident_number": "261100660",
        "incident_code": "2026-FLFLS-261100660",
        "name": "STONEBROOK (09)",
        "status": "Contained",
        "category": "Wildfire",
        "acres": 1.3,
        "containment_percent": 100,
        "county": "Citrus",
        "field_unit": "Withlacoochee",
        "region": "Region 3",
        "protecting_unit": "FLFLS - Florida Forest Service",
        "resources_assigned": 0,
        "discovery_time": "2026-09-25T04:53:01",
        "status_updated_time": "2026-09-25T15:39:57",
        "is_obscured": false
      }
    },
    {
      "type": "Feature",
      "geometry": {
        "type": "Point",
        "coordinates": [
          -81.80305480957031,
          28.34083366394043
        ]
      },
      "properties": {
        "id": "2312a745-154c-4da3-93da-f8c46342d3ab",
        "incident_number": "261400469",
        "incident_code": "2026-FLFLS-261400469",
        "name": "FOUR CORNERS (53)",
        "status": "Active",
        "category": "Wildfire",
        "acres": 11.0,
        "containment_percent": 90,
        "county": "Polk",
        "field_unit": "Lakeland",
        "region": "Region 3",
        "protecting_unit": "FLFLS - Florida Forest Service",
        "resources_assigned": 0,
        "discovery_time": "2026-08-22T22:52:01",
        "status_updated_time": "2026-09-28T16:08:03",
        "is_obscured": false
      }
    }
  ]
}