{"type": "FeatureCollection", "crs": {"type": "name", "properties": {"name": "EPSG:4326"}}, "features": [{"type": "Feature", "id": 551964, "geometry": {"type": "Point", "coordinates": [-83.1752814757816, 29.8519500038534]}, "properties": {"OBJECTID": 551964, "SourceOID": 43276096, "ABCDMisc": null, "ADSPermissionState": "DEFAULT", "ContainmentDateTime": null, "ControlDateTime": null, "CreatedBySystem": "ics209", "IncidentSize": 2265, "DiscoveryAcres": null, "DispatchCenterID": "FLFLSC", "EstimatedCostToDate": 0, "FinalAcres": null, "FinalFireReportApprovedByTitle": null, "FinalFireReportApprovedByUnit": null, "FinalFireReportApprovedDate": null, "FireBehaviorGeneral": "Minimal", "FireBehaviorGeneral1": null, "FireBehaviorGeneral2": "Smoldering", "FireBehaviorGeneral3": "Smoldering", "FireCause": "Natural", "FireCauseGeneral": null, "FireCauseSpecific": null, "FireCode": "SN8B", "FireDepartmentID": null, "FireDiscoveryDateTime": 1777839300000, "FireMgmtComplexity": null, "FireOutDateTime": null, "FireStrategyConfinePercent": 0, "FireStrategyFullSuppPercent": 0, "FireStrategyMonitorPercent": 100, "FireStrategyPointZonePercent": 0, "FSJobCode": null, "FSOverrideCode": null, "GACC": "SACC", "ICS209ReportDateTime": 1785356917000, "ICS209ReportForTimePeriodFrom": 1785349200000, "ICS209ReportForTimePeriodTo": 1785350460000, "ICS209ReportStatus": "U", "IncidentManagementOrganization": "Type 4 IC", "IncidentName": "SOUTH CANAL- LAFAYETTE (34)", "IncidentShortDescription": "12 Miles S from Mayo, FL", "IncidentTypeCategory": "WF", "IncidentTypeKind": "FI", "InitialLatitude": null, "InitialLongitude": null, "InitialResponseAcres": null, "InitialResponseDateTime": null, "IrwinID": "{097653FF-B190-4EB3-971E-7B71D921F7D1}", "IsFireCauseInvestigated": null, "IsFireCodeRequested": 0, "IsFSAssisted": 1, "IsMultiJurisdictional": 0, "IsReimbursable": 0, "IsTrespass": 0, "IsUnifiedCommand": 0, "LocalIncidentIdentifier": "260500199", "ModifiedBySystem": "ics209", "PercentContained": 97, "PercentPerimeterToBeContained": 100, "POOCity": "Hine", "POOCounty": "Lafayette", "POODispatchCenterID": "FLFLSC", "POOFips": "12067", "POOJurisdictionalAgency": null, "POOJurisdictionalUnit": null, "POOJurisdictionalUnitParentUnit": null, "POOLandownerCategory": "Private", "POOLandownerKind": "Private", "POOLegalDescPrincipalMeridian": null, "POOLegalDescQtr": null, "POOLegalDescQtrQtr": null, "POOLegalDescRange": null, "POOLegalDescSection": null, "POOLegalDescTownship": null, "POOPredictiveServiceAreaID": "SA48", "POOProtectingAgency": "DVF", "POOProtectingUnit": "FLFLS", "POOState": "US-FL", "PredominantFuelGroup": null, "PredominantFuelModel": null, "PrimaryFuelModel": "Heavy Logging Slash", "SecondaryFuelModel": "Timber (Litter and Understory)", "TotalIncidentPersonnel": 174, "UniqueFireIdentifier": "2026-FLFLS-260500199", "WFDSSDecisionStatus": "No Decision", "EstimatedFinalCost": null, "OrganizationalAssessment": null, "StrategicDecisionPublishDate": null, "CreatedOnDateTime_dt": 1778028904220, "ModifiedOnDateTime_dt": 1785356916920, "ActiveFireCandidate": 1, "IsCpxChild": 0, "CpxName": null, "CpxID": null, "SourceGlobalID": "{50CC14D3-251B-4637-9E0B-149E0AF48C29}", "GlobalID": "2229b611-4771-425f-9781-3a0476210b02", "IncidentComplexityLevel": "Type 3 Incident"}}, {"type": "Feature", "id": 560517, "geometry": {"type": "Point", "coordinates": [-80.4211527669452, 26.5093378668775]}, "properties": {"OBJECTID": 560517, "SourceOID": 43285649, "ABCDMisc": null, "ADSPermissionState": "DEFAULT", "ContainmentDateTime": null, "ControlDateTime": null, "CreatedBySystem": "wildcade", "IncidentSize": 7609, "DiscoveryAcres": null, "DispatchCenterID": "FLFIC", "EstimatedCostToDate": null, "FinalAcres": null, "FinalFireReportApprovedByTitle": null, "FinalFireReportApprovedByUnit": null, "FinalFireReportApprovedDate": null, "FireBehaviorGeneral": null, "FireBehaviorGeneral1": null, "FireBehaviorGeneral2": null, "FireBehaviorGeneral3": null, "FireCause": "Undetermined", "FireCauseGeneral": null, "FireCauseSpecific": null, "FireCode": null, "FireDepartmentID": null, "FireDiscoveryDateTime": 1780855267000, "FireMgmtComplexity": null, "FireOutDateTime": null, "FireStrategyConfinePercent": null, "FireStrategyFullSuppPercent": null, "FireStrategyMonitorPercent": null, "FireStrategyPointZonePercent": null, "FSJobCode": null, "FSOverrideCode": null, "GACC": "SACC", "ICS209ReportDateTime": null, "ICS209ReportForTimePeriodFrom": null, "ICS209ReportForTimePeriodTo": null, "ICS209ReportStatus": null, "IncidentManagementOrganization": null, "IncidentName": "LXR Lower Third Rx 0609", "IncidentShortDescription": null, "IncidentTypeCategory": "RX", "IncidentTypeKind": "FI", "InitialLatitude": 26.509333, "InitialLongitude": -80.42115, "InitialResponseAcres": null, "InitialResponseDateTime": null, "IrwinID": "{4A32A7FC-9973-4E74-9A22-1319091EF683}", "IsFireCauseInvestigated": null, "IsFireCodeRequested": 0, "IsFSAssisted": 0, "IsMultiJurisdictional": 0, "IsReimbursable": 0, "IsTrespass": 0, "IsUnifiedCommand": null, "LocalIncidentIdentifier": "001817", "ModifiedBySystem": "wildcade", "PercentContained": null, "PercentPerimeterToBeContained": null, "POOCity": null, "POOCounty": "Palm Beach", "POODispatchCenterID": "FLFLSC", "POOFips": "12099", "POOJurisdictionalAgency": "USFWS", "POOJurisdictionalUnit": "FLLXR", "POOJurisdictionalUnitParentUnit": null, "POOLandownerCategory": "USFWS", "POOLandownerKind": "Federal", "POOLegalDescPrincipalMeridian": null, "POOLegalDescQtr": null, "POOLegalDescQtrQtr": null, "POOLegalDescRange": null, "POOLegalDescSection": null, "POOLegalDescTownship": null, "POOPredictiveServiceAreaID": "SA50", "POOProtectingAgency": "USFWS", "POOProtectingUnit": "FLLXR", "POOState": "US-FL", "PredominantFuelGroup": null, "PredominantFuelModel": null, "PrimaryFuelModel": null, "SecondaryFuelModel": null, "TotalIncidentPersonnel": null, "UniqueFireIdentifier": "2026-FLLXR-001817", "WFDSSDecisionStatus": "No Decision", "EstimatedFinalCost": null, "OrganizationalAssessment": null, "StrategicDecisionPublishDate": null, "CreatedOnDateTime_dt": 1780855314620, "ModifiedOnDateTime_dt": 1785180107987, "ActiveFireCandidate": 1, "IsCpxChild": 0, "CpxName": null, "CpxID": null, "SourceGlobalID": "{57A336FB-53B5-46FD-8CA6-B5BDE1FADCDE}", "GlobalID": "c63eb1aa-a23f-4c93-a23b-d01bc8361678", "IncidentComplexityLevel": null}}, {"type": "Feature", "id": 560988, "geometry": {"type": "Point", "coordinates": [-81.0952029575116, 26.2959217983131]}, "properties": {"OBJECTID": 560988, "SourceOID": 43286120, "ABCDMisc": null, "ADSPermissionState": "DEFAULT", "ContainmentDateTime": null, "ControlDateTime": null, "CreatedBySystem": "wildcade", "IncidentSize": 48, "DiscoveryAcres": null, "DispatchCenterID": "FLFIC", "EstimatedCostToDate": null, "FinalAcres": null, "FinalFireReportApprovedByTitle": null, "FinalFireReportApprovedByUnit": null, "FinalFireReportApprovedDate": null, "FireBehaviorGeneral": null, "FireBehaviorGeneral1": null, "FireBehaviorGeneral2": null, "FireBehaviorGeneral3": null, "FireCause": "Undetermined", "FireCauseGeneral": null, "FireCauseSpecific": null, "FireCode": null, "FireDepartmentID": null, "FireDiscoveryDateTime": 1781014477000, "FireMgmtComplexity": null, "FireOutDateTime": null, "FireStrategyConfinePercent": null, "FireStrategyFullSuppPercent": null, "FireStrategyMonitorPercent": null, "FireStrategyPointZonePercent": null, "FSJobCode": null, "FSOverrideCode": null, "GACC": "SACC", "ICS209ReportDateTime": null, "ICS209ReportForTimePeriodFrom": null, "ICS209ReportForTimePeriodTo": null, "ICS209ReportStatus": null, "IncidentManagementOrganization": null, "IncidentName": "SEA KBS-2 RX 0609", "IncidentShortDescription": null, "IncidentTypeCategory": "RX", "IncidentTypeKind": "FI", "InitialLatitude": 26.295917, "InitialLongitude": -81.0952, "InitialResponseAcres": null, "InitialResponseDateTime": null, "IrwinID": "{4902794A-BFCE-457F-B4C0-B553C5401B27}", "IsFireCauseInvestigated": null, "IsFireCodeRequested": 0, "IsFSAssisted": 0, "IsMultiJurisdictional": 0, "IsReimbursable": 0, "IsTrespass": 0, "IsUnifiedCommand": null, "LocalIncidentIdentifier": "001832", "ModifiedBySystem": "wildcade", "PercentContained": null, "PercentPerimeterToBeContained": null, "POOCity": null, "POOCounty": "Hendry", "POODispatchCenterID": "FLFIC", "POOFips": "12051", "POOJurisdictionalAgency": "BIA", "POOJurisdictionalUnit": "FLSEA", "POOJurisdictionalUnitParentUnit": null, "POOLandownerCategory": "BIA", "POOLandownerKind": "Federal", "POOLegalDescPrincipalMeridian": null, "POOLegalDescQtr": null, "POOLegalDescQtrQtr": null, "POOLegalDescRange": null, "POOLegalDescSection": null, "POOLegalDescTownship": null, "POOPredictiveServiceAreaID": "SA50", "POOProtectingAgency": "TRIBE", "POOProtectingUnit": "FLSET", "POOState": "US-FL", "PredominantFuelGroup": null, "PredominantFuelModel": null, "PrimaryFuelModel": null, "SecondaryFuelModel": null, "TotalIncidentPersonnel": null, "UniqueFireIdentifier": "2026-FLSET-001832", "WFDSSDecisionStatus": "No Decision", "EstimatedFinalCost": null, "OrganizationalAssessment": null, "StrategicDecisionPublishDate": null, "CreatedOnDateTime_dt": 1781014512280, "ModifiedOnDateTime_dt": 1785180354300, "ActiveFireCandidate": 1, "IsCpxChild": 0, "CpxName": null, "CpxID": null, "SourceGlobalID": "{F81B74E9-A660-49C4-94CD-E8F79FE42B90}", "GlobalID": "c4aae3c8-f41b-485c-b4c8-e7269f353abb", "IncidentComplexityLevel": null}}, {"type": "Feature", "id": 568040, "geometry": {"type": "Point", "coordinates": [-80.9414699131638, 26.3098718052343]}, "properties": {"OBJECTID": 568040, "SourceOID": 43294168, "ABCDMisc": null, "ADSPermissionState": "DEFAULT", "ContainmentDateTime": null, "ControlDateTime": null, "CreatedBySystem": "wildcade", "IncidentSize": 15, "DiscoveryAcres": null, "DispatchCenterID": "FLFIC", "EstimatedCostToDate": null, "FinalAcres": null, "FinalFireReportApprovedByTitle": null, "FinalFireReportApprovedByUnit": null, "FinalFireReportApprovedDate": null, "FireBehaviorGeneral": null, "FireBehaviorGeneral1": null, "FireBehaviorGeneral2": null, "FireBehaviorGeneral3": null, "FireCause": "Undetermined", "FireCauseGeneral": null, "FireCauseSpecific": null, "FireCode": null, "FireDepartmentID": null, "FireDiscoveryDateTime": 1782914328000, "FireMgmtComplexity": null, "FireOutDateTime": null, "FireStrategyConfinePercent": null, "FireStrategyFullSuppPercent": null, "FireStrategyMonitorPercent": null, "FireStrategyPointZonePercent": null, "FSJobCode": null, "FSOverrideCode": null, "GACC": "SACC", "ICS209ReportDateTime": null, "ICS209ReportForTimePeriodFrom": null, "ICS209ReportForTimePeriodTo": null, "ICS209ReportStatus": null, "IncidentManagementOrganization": null, "IncidentName": "SET NC 1 Rodney Osceola Pasture Rx Pile Burn 0701", "IncidentShortDescription": null, "IncidentTypeCategory": "RX", "IncidentTypeKind": "FI", "InitialLatitude": 26.309867, "InitialLongitude": -80.941467, "InitialResponseAcres": null, "InitialResponseDateTime": null, "IrwinID": "{671185F9-5386-4898-A5AB-85A18AF2F119}", "IsFireCauseInvestigated": null, "IsFireCodeRequested": 0, "IsFSAssisted": 0, "IsMultiJurisdictional": 0, "IsReimbursable": 0, "IsTrespass": 0, "IsUnifiedCommand": null, "LocalIncidentIdentifier": "002077", "ModifiedBySystem": "wildcade", "PercentContained": null, "PercentPerimeterToBeContained": null, "POOCity": null, "POOCounty": "Hendry", "POODispatchCenterID": "FLFIC", "POOFips": "12051", "POOJurisdictionalAgency": "BIA", "POOJurisdictionalUnit": "FLSEA", "POOJurisdictionalUnitParentUnit": null, "POOLandownerCategory": "BIA", "POOLandownerKind": "Federal", "POOLegalDescPrincipalMeridian": null, "POOLegalDescQtr": null, "POOLegalDescQtrQtr": null, "POOLegalDescRange": null, "POOLegalDescSection": null, "POOLegalDescTownship": null, "POOPredictiveServiceAreaID": "SA50", "POOProtectingAgency": "TRIBE", "POOProtectingUnit": "FLSET", "POOState": "US-FL", "PredominantFuelGroup": null, "PredominantFuelModel": null, "PrimaryFuelModel": null, "SecondaryFuelModel": null, "TotalIncidentPersonnel": null, "UniqueFireIdentifier": "2026-FLSET-002077", "WFDSSDecisionStatus": "No Decision", "EstimatedFinalCost": null, "OrganizationalAssessment": null, "StrategicDecisionPublishDate": null, "CreatedOnDateTime_dt": 1782916471597, "ModifiedOnDateTime_dt": 1785184700650, "ActiveFireCandidate": 1, "IsCpxChild": 0, "CpxName": null, "CpxID": null, "SourceGlobalID": "{C1BE4251-D6D2-401A-AB59-E82D1768B3C0}", "GlobalID": "8a976f91-a7a8-4755-8460-b93c08dae212", "IncidentComplexityLevel": null}}, {"type": "Feature", "id": 570495, "geometry": {"type": "Point", "coordinates": [-82.313536445523, 30.3385057422926]}, "properties": {"OBJECTID": 570495, "SourceOID": 43296623, "ABCDMisc": null, "ADSPermissionState": "ICS209", "ContainmentDateTime": null, "ControlDateTime": null, "CreatedBySystem": "wildcade", "IncidentSize": 409, "DiscoveryAcres": 10, "DispatchCenterID": "FLFIC", "EstimatedCostToDate": 530000, "FinalAcres": null, "FinalFireReportApprovedByTitle": null, "FinalFireReportApprovedByUnit": null, "FinalFireReportApprovedDate": null, "FireBehaviorGeneral": "Minimal", "FireBehaviorGeneral1": "Smoldering", "FireBehaviorGeneral2": "Backing", "FireBehaviorGeneral3": "Backing", "FireCause": "Undetermined", "FireCauseGeneral": null, "FireCauseSpecific": null, "FireCode": "ST4D", "FireDepartmentID": null, "FireDiscoveryDateTime": 1783367859000, "FireMgmtComplexity": null, "FireOutDateTime": null, "FireStrategyConfinePercent": 0, "FireStrategyFullSuppPercent": 100, "FireStrategyMonitorPercent": 0, "FireStrategyPointZonePercent": 0, "FSJobCode": "P8", "FSOverrideCode": "0805", "GACC": "SACC", "ICS209ReportDateTime": 1785366488000, "ICS209ReportForTimePeriodFrom": 1785276000000, "ICS209ReportForTimePeriodTo": 1785362400000, "ICS209ReportStatus": "U", "IncidentManagementOrganization": "Type 4 IC", "IncidentName": "Mailbox", "IncidentShortDescription": "7 Miles S from Taylor, FL", "IncidentTypeCategory": "WF", "IncidentTypeKind": "FI", "InitialLatitude": 30.34, "InitialLongitude": -82.3161, "InitialResponseAcres": null, "InitialResponseDateTime": null, "IrwinID": "{C69CEB41-879D-46B8-8A90-D0CBEA640674}", "IsFireCauseInvestigated": null, "IsFireCodeRequested": 0, "IsFSAssisted": 1, "IsMultiJurisdictional": 0, "IsReimbursable": 0, "IsTrespass": 0, "IsUnifiedCommand": 0, "LocalIncidentIdentifier": "002135", "ModifiedBySystem": "ics209", "PercentContained": 50, "PercentPerimeterToBeContained": 100, "POOCity": "Sanderson", "POOCounty": "Baker", "POODispatchCenterID": "FLFIC", "POOFips": "12003", "POOJurisdictionalAgency": "USFS", "POOJurisdictionalUnit": "FLFNF", "POOJurisdictionalUnitParentUnit": null, "POOLandownerCategory": "USFS", "POOLandownerKind": "Federal", "POOLegalDescPrincipalMeridian": "Tallahassee", "POOLegalDescQtr": "NW", "POOLegalDescQtrQtr": null, "POOLegalDescRange": "20E", "POOLegalDescSection": 9, "POOLegalDescTownship": "2S", "POOPredictiveServiceAreaID": "SA48", "POOProtectingAgency": "USFS", "POOProtectingUnit": "FLFNF", "POOState": "US-FL", "PredominantFuelGroup": null, "PredominantFuelModel": null, "PrimaryFuelModel": "Southern Rough", "SecondaryFuelModel": null, "TotalIncidentPersonnel": 45, "UniqueFireIdentifier": "2026-FLFNF-002135", "WFDSSDecisionStatus": "Pending Decision", "EstimatedFinalCost": 6500000, "OrganizationalAssessment": "Type 4 IC", "StrategicDecisionPublishDate": 1785174483000, "CreatedOnDateTime_dt": 1783370516140, "ModifiedOnDateTime_dt": 1785366488077, "ActiveFireCandidate": 1, "IsCpxChild": 0, "CpxName": null, "CpxID": null, "SourceGlobalID": "{7AF309A7-39E5-484D-9F7D-A8FC0724EE83}", "GlobalID": "76d98f93-41cd-445c-93f6-18fad19389f1", "IncidentComplexityLevel": "Type 4 Incident"}}, {"type": "Feature", "id": 573219, "geometry": {"type": "Point", "coordinates": [-81.7005587944646, 28.3175052807831]}, "properties": {"OBJECTID": 573219, "SourceOID": 43298336, "ABCDMisc": null, "ADSPermissionState": "DEFAULT", "ContainmentDateTime": null, "ControlDateTime": null, "CreatedBySystem": "ics209", "IncidentSize": 185, "DiscoveryAcres": null, "DispatchCenterID": "FLFLSC", "EstimatedCostToDate": 0, "FinalAcres": null, "FinalFireReportApprovedByTitle": null, "FinalFireReportApprovedByUnit": null, "FinalFireReportApprovedDate": null, "FireBehaviorGeneral": "Minimal", "FireBehaviorGeneral1": null, "FireBehaviorGeneral2": "Flanking", "FireBehaviorGeneral3": null, "FireCause": "Natural", "FireCauseGeneral": null, "FireCauseSpecific": null, "FireCode": null, "FireDepartmentID": null, "FireDiscoveryDateTime": 1783635300000, "FireMgmtComplexity": null, "FireOutDateTime": null, "FireStrategyConfinePercent": 0, "FireStrategyFullSuppPercent": 100, "FireStrategyMonitorPercent": 0, "FireStrategyPointZonePercent": 0, "FSJobCode": null, "FSOverrideCode": null, "GACC": "SACC", "ICS209ReportDateTime": 1785340882000, "ICS209ReportForTimePeriodFrom": 1785326400000, "ICS209ReportForTimePeriodTo": 1785335400000, "ICS209ReportStatus": "U", "IncidentManagementOrganization": "Type 5 IC", "IncidentName": "SAND MINE (53)", "IncidentShortDescription": "8 Miles NW from DAVENPORT, FL", "IncidentTypeCategory": "WF", "IncidentTypeKind": "FI", "InitialLatitude": null, "InitialLongitude": null, "InitialResponseAcres": null, "InitialResponseDateTime": null, "IrwinID": "{8BECDE12-FBFF-4C07-B933-80C5719BB9C6}", "IsFireCauseInvestigated": null, "IsFireCodeRequested": 0, "IsFSAssisted": null, "IsMultiJurisdictional": null, "IsReimbursable": null, "IsTrespass": null, "IsUnifiedCommand": 0, "LocalIncidentIdentifier": "261400366", "ModifiedBySystem": "ics209", "PercentContained": 90, "PercentPerimeterToBeContained": 100, "POOCity": "FOUR CORNERS", "POOCounty": "Polk", "POODispatchCenterID": "FLFLSC", "POOFips": "12105", "POOJurisdictionalAgency": "DVF", "POOJurisdictionalUnit": "FLFLS", "POOJurisdictionalUnitParentUnit": null, "POOLandownerCategory": "State", "POOLandownerKind": "State", "POOLegalDescPrincipalMeridian": null, "POOLegalDescQtr": null, "POOLegalDescQtrQtr": null, "POOLegalDescRange": null, "POOLegalDescSection": null, "POOLegalDescTownship": null, "POOPredictiveServiceAreaID": "SA49", "POOProtectingAgency": "DVF", "POOProtectingUnit": "FLFLS", "POOState": "US-FL", "PredominantFuelGroup": null, "PredominantFuelModel": null, "PrimaryFuelModel": "Timber (Litter and Understory)", "SecondaryFuelModel": null, "TotalIncidentPersonnel": 9, "UniqueFireIdentifier": "2026-FLFLS-261400366", "WFDSSDecisionStatus": "No Decision", "EstimatedFinalCost": null, "OrganizationalAssessment": null, "StrategicDecisionPublishDate": null, "CreatedOnDateTime_dt": 1783729882437, "ModifiedOnDateTime_dt": 1785340882867, "ActiveFireCandidate": 1, "IsCpxChild": 0, "CpxName": null, "CpxID": null, "SourceGlobalID": "{DB339753-C6AE-4E89-8D31-FA79B79B2C95}", "GlobalID": "ab9ba55a-caf5-44bf-8607-fab9fea64524", "IncidentComplexityLevel": "Type 5 Incident"}}, {"type": "Feature", "id": 575549, "geometry": {"type": "Point", "coordinates": [-82.8502814072203, 30.4936168621096]}, "properties": {"OBJECTID": 575549, "SourceOID": 43300663, "ABCDMisc": null, "ADSPermissionState": "DEFAULT", "ContainmentDateTime": null, "ControlDateTime": null, "CreatedBySystem": "ics209", "IncidentSize": 170, "DiscoveryAcres": null, "DispatchCenterID": "FLFLSC", "EstimatedCostToDate": 0, "FinalAcres": null, "FinalFireReportApprovedByTitle": null, "FinalFireReportApprovedByUnit": null, "FinalFireReportApprovedDate": null, "FireBehaviorGeneral": "Minimal", "FireBehaviorGeneral1": null, "FireBehaviorGeneral2": "Flanking", "FireBehaviorGeneral3": "Group Torching", "FireCause": "Natural", "FireCauseGeneral": null, "FireCauseSpecific": null, "FireCode": null, "FireDepartmentID": null, "FireDiscoveryDateTime": 1784052000000, "FireMgmtComplexity": null, "FireOutDateTime": null, "FireStrategyConfinePercent": 0, "FireStrategyFullSuppPercent": 100, "FireStrategyMonitorPercent": 0, "FireStrategyPointZonePercent": 0, "FSJobCode": null, "FSOverrideCode": null, "GACC": "SACC", "ICS209ReportDateTime": 1785340460000, "ICS209ReportForTimePeriodFrom": 1785326400000, "ICS209ReportForTimePeriodTo": 1785339900000, "ICS209ReportStatus": "U", "IncidentManagementOrganization": "Type 5 IC", "IncidentName": "BEE HAVEN BAY (24-06)", "IncidentShortDescription": "77 Miles E from TALLAHASSEE, FL", "IncidentTypeCategory": "WF", "IncidentTypeKind": "FI", "InitialLatitude": null, "InitialLongitude": null, "InitialResponseAcres": null, "InitialResponseDateTime": null, "IrwinID": "{54D88ACC-F17F-48FC-8EFA-FF90F52EFB89}", "IsFireCauseInvestigated": null, "IsFireCodeRequested": 0, "IsFSAssisted": null, "IsMultiJurisdictional": null, "IsReimbursable": null, "IsTrespass": null, "IsUnifiedCommand": 0, "LocalIncidentIdentifier": "260600886", "ModifiedBySystem": "ics209", "PercentContained": 73, "PercentPerimeterToBeContained": 100, "POOCity": "JASPER", "POOCounty": "Hamilton", "POODispatchCenterID": "FLFLSC", "POOFips": "12047", "POOJurisdictionalAgency": null, "POOJurisdictionalUnit": null, "POOJurisdictionalUnitParentUnit": null, "POOLandownerCategory": "Private", "POOLandownerKind": "Private", "POOLegalDescPrincipalMeridian": null, "POOLegalDescQtr": null, "POOLegalDescQtrQtr": null, "POOLegalDescRange": null, "POOLegalDescSection": null, "POOLegalDescTownship": null, "POOPredictiveServiceAreaID": "SA48", "POOProtectingAgency": "DVF", "POOProtectingUnit": "FLFLS", "POOState": "US-FL", "PredominantFuelGroup": null, "PredominantFuelModel": null, "PrimaryFuelModel": "Hardwood Litter", "SecondaryFuelModel": null, "TotalIncidentPersonnel": 7, "UniqueFireIdentifier": "2026-FLFLS-260600886", "WFDSSDecisionStatus": "No Decision", "EstimatedFinalCost": null, "OrganizationalAssessment": null, "StrategicDecisionPublishDate": null, "CreatedOnDateTime_dt": 1784251012490, "ModifiedOnDateTime_dt": 1785340460980, "ActiveFireCandidate": 1, "IsCpxChild": 0, "CpxName": null, "CpxID": null, "SourceGlobalID": "{457A3E4A-D578-44FF-BC95-5E81D62BBAF5}", "GlobalID": "e1dbddcc-8dcb-4b00-8d89-804acf789544", "IncidentComplexityLevel": "Type 5 Incident"}}, {"type": "Feature", "id": 577518, "geometry": {"type": "Point", "coordinates": [-80.9097249037195, 26.3025048040958]}, "properties": {"OBJECTID": 577518, "SourceOID": 43302632, "ABCDMisc": null, "ADSPermissionState": "DEFAULT", "ContainmentDateTime": null, "ControlDateTime": null, "CreatedBySystem": "wildcade", "IncidentSize": 20, "DiscoveryAcres": 20, "DispatchCenterID": "FLFIC", "EstimatedCostToDate": null, "FinalAcres": null, "FinalFireReportApprovedByTitle": null, "FinalFireReportApprovedByUnit": null, "FinalFireReportApprovedDate": null, "FireBehaviorGeneral": null, "FireBehaviorGeneral1": null, "FireBehaviorGeneral2": null, "FireBehaviorGeneral3": null, "FireCause": "Undetermined", "FireCauseGeneral": null, "FireCauseSpecific": null, "FireCode": null, "FireDepartmentID": null, "FireDiscoveryDateTime": 1784730947000, "FireMgmtComplexity": null, "FireOutDateTime": null, "FireStrategyConfinePercent": null, "FireStrategyFullSuppPercent": null, "FireStrategyMonitorPercent": null, "FireStrategyPointZonePercent": null, "FSJobCode": null, "FSOverrideCode": null, "GACC": "SACC", "ICS209ReportDateTime": null, "ICS209ReportForTimePeriodFrom": null, "ICS209ReportForTimePeriodTo": null, "ICS209ReportStatus": null, "IncidentManagementOrganization": null, "IncidentName": "SET NC4 Bull Pasture RX 0722", "IncidentShortDescription": null, "IncidentTypeCategory": "RX", "IncidentTypeKind": "FI", "InitialLatitude": 26.3025, "InitialLongitude": -80.909722, "InitialResponseAcres": null, "InitialResponseDateTime": null, "IrwinID": "{54EAC7D5-FFC0-4260-A78B-8D08CC1A36E0}", "IsFireCauseInvestigated": null, "IsFireCodeRequested": 0, "IsFSAssisted": 1, "IsMultiJurisdictional": 0, "IsReimbursable": 0, "IsTrespass": 0, "IsUnifiedCommand": null, "LocalIncidentIdentifier": "002288", "ModifiedBySystem": "wildcade", "PercentContained": null, "PercentPerimeterToBeContained": null, "POOCity": null, "POOCounty": "Hendry", "POODispatchCenterID": "FLFIC", "POOFips": "12051", "POOJurisdictionalAgency": "BIA", "POOJurisdictionalUnit": "FLSEA", "POOJurisdictionalUnitParentUnit": null, "POOLandownerCategory": "BIA", "POOLandownerKind": "Federal", "POOLegalDescPrincipalMeridian": null, "POOLegalDescQtr": null, "POOLegalDescQtrQtr": null, "POOLegalDescRange": null, "POOLegalDescSection": null, "POOLegalDescTownship": null, "POOPredictiveServiceAreaID": "SA50", "POOProtectingAgency": "TRIBE", "POOProtectingUnit": "FLSET", "POOState": "US-FL", "PredominantFuelGroup": null, "PredominantFuelModel": null, "PrimaryFuelModel": null, "SecondaryFuelModel": null, "TotalIncidentPersonnel": null, "UniqueFireIdentifier": "2026-FLSET-002288", "WFDSSDecisionStatus": "No Decision", "EstimatedFinalCost": null, "OrganizationalAssessment": null, "StrategicDecisionPublishDate": null, "CreatedOnDateTime_dt": 1784731736240, "ModifiedOnDateTime_dt": 1785179063513, "ActiveFireCandidate": 1, "IsCpxChild": 0, "CpxName": null, "CpxID": null, "SourceGlobalID": "{E1A8A630-76DD-4306-AF29-56F49100B7AD}", "GlobalID": "3e6438ce-3a7d-4a01-bcfb-69ab2d3d969d", "IncidentComplexityLevel": null}}, {"type": "Feature", "id": 578017, "geometry": {"type": "Point", "coordinates": [-81.708503224249, 29.1201724730242]}, "properties": {"OBJECTID": 578017, "SourceOID": 43303131, "ABCDMisc": null, "ADSPermissionState": "DEFAULT", "ContainmentDateTime": null, "ControlDateTime": null, "CreatedBySystem": "wildcade", "IncidentSize": 0.25, "DiscoveryAcres": 0.25, "DispatchCenterID": "FLFIC", "EstimatedCostToDate": null, "FinalAcres": null, "FinalFireReportApprovedByTitle": null, "FinalFireReportApprovedByUnit": null, "FinalFireReportApprovedDate": null, "FireBehaviorGeneral": null, "FireBehaviorGeneral1": null, "FireBehaviorGeneral2": null, "FireBehaviorGeneral3": null, "FireCause": "Undetermined", "FireCauseGeneral": null, "FireCauseSpecific": null, "FireCode": "SVCV", "FireDepartmentID": null, "FireDiscoveryDateTime": 1784828700000, "FireMgmtComplexity": null, "FireOutDateTime": null, "FireStrategyConfinePercent": null, "FireStrategyFullSuppPercent": null, "FireStrategyMonitorPercent": null, "FireStrategyPointZonePercent": null, "FSJobCode": "P8", "FSOverrideCode": "0805", "GACC": "SACC", "ICS209ReportDateTime": null, "ICS209ReportForTimePeriodFrom": null, "ICS209ReportForTimePeriodTo": null, "ICS209ReportStatus": null, "IncidentManagementOrganization": null, "IncidentName": "Bombing Range 6", "IncidentShortDescription": null, "IncidentTypeCategory": "WF", "IncidentTypeKind": "FI", "InitialLatitude": 29.120167, "InitialLongitude": -81.7085, "InitialResponseAcres": null, "InitialResponseDateTime": null, "IrwinID": "{162169E9-D6B4-49C9-9652-D88D845AA3D2}", "IsFireCauseInvestigated": null, "IsFireCodeRequested": 0, "IsFSAssisted": 1, "IsMultiJurisdictional": 0, "IsReimbursable": 0, "IsTrespass": 0, "IsUnifiedCommand": null, "LocalIncidentIdentifier": "002301", "ModifiedBySystem": "wildcade", "PercentContained": null, "PercentPerimeterToBeContained": null, "POOCity": null, "POOCounty": "Marion", "POODispatchCenterID": "FLFIC", "POOFips": "12083", "POOJurisdictionalAgency": "USFS", "POOJurisdictionalUnit": "FLFNF", "POOJurisdictionalUnitParentUnit": null, "POOLandownerCategory": "USFS", "POOLandownerKind": "Federal", "POOLegalDescPrincipalMeridian": null, "POOLegalDescQtr": null, "POOLegalDescQtrQtr": null, "POOLegalDescRange": null, "POOLegalDescSection": null, "POOLegalDescTownship": null, "POOPredictiveServiceAreaID": "SA49", "POOProtectingAgency": "USFS", "POOProtectingUnit": "FLFNF", "POOState": "US-FL", "PredominantFuelGroup": null, "PredominantFuelModel": null, "PrimaryFuelModel": null, "SecondaryFuelModel": null, "TotalIncidentPersonnel": null, "UniqueFireIdentifier": "2026-FLFNF-002301", "WFDSSDecisionStatus": "No Decision", "EstimatedFinalCost": null, "OrganizationalAssessment": null, "StrategicDecisionPublishDate": null, "CreatedOnDateTime_dt": 1784831346207, "ModifiedOnDateTime_dt": 1785336569503, "ActiveFireCandidate": 1, "IsCpxChild": 0, "CpxName": null, "CpxID": null, "SourceGlobalID": "{C86D0842-5786-477F-9724-B7BF74363010}", "GlobalID": "eac88dc5-f68e-487a-9c86-3f98ab04a70c", "IncidentComplexityLevel": null}}, {"type": "Feature", "id": 578477, "geometry": {"type": "Point", "coordinates": [-81.4845361520138, 28.9177884307685]}, "properties": {"OBJECTID": 578477, "SourceOID": 43303592, "ABCDMisc": null, "ADSPermissionState": "DEFAULT", "ContainmentDateTime": null, "ControlDateTime": null, "CreatedBySystem": "wildcade", "IncidentSize": 119, "DiscoveryAcres": 119, "DispatchCenterID": "FLFIC", "EstimatedCostToDate": null, "FinalAcres": null, "FinalFireReportApprovedByTitle": null, "FinalFireReportApprovedByUnit": null, "FinalFireReportApprovedDate": null, "FireBehaviorGeneral": null, "FireBehaviorGeneral1": null, "FireBehaviorGeneral2": null, "FireBehaviorGeneral3": null, "FireCause": "Undetermined", "FireCauseGeneral": null, "FireCauseSpecific": null, "FireCode": null, "FireDepartmentID": null, "FireDiscoveryDateTime": 1784921573000, "FireMgmtComplexity": null, "FireOutDateTime": null, "FireStrategyConfinePercent": null, "FireStrategyFullSuppPercent": null, "FireStrategyMonitorPercent": null, "FireStrategyPointZonePercent": null, "FSJobCode": "P8", "FSOverrideCode": "0805", "GACC": "SACC", "ICS209ReportDateTime": null, "ICS209ReportForTimePeriodFrom": null, "ICS209ReportForTimePeriodTo": null, "ICS209ReportStatus": null, "IncidentManagementOrganization": null, "IncidentName": "Pine Lakes", "IncidentShortDescription": null, "IncidentTypeCategory": "WF", "IncidentTypeKind": "FI", "InitialLatitude": 28.921667, "InitialLongitude": -81.486667, "InitialResponseAcres": null, "InitialResponseDateTime": null, "IrwinID": "{A77442BA-8392-455C-8B50-5A6D996D12DE}", "IsFireCauseInvestigated": null, "IsFireCodeRequested": 0, "IsFSAssisted": 1, "IsMultiJurisdictional": 0, "IsReimbursable": 0, "IsTrespass": 0, "IsUnifiedCommand": null, "LocalIncidentIdentifier": "002313", "ModifiedBySystem": "wildcade", "PercentContained": null, "PercentPerimeterToBeContained": null, "POOCity": null, "POOCounty": "Lake", "POODispatchCenterID": "FLFIC", "POOFips": "12069", "POOJurisdictionalAgency": "USFS", "POOJurisdictionalUnit": "FLFNF", "POOJurisdictionalUnitParentUnit": null, "POOLandownerCategory": "USFS", "POOLandownerKind": "Federal", "POOLegalDescPrincipalMeridian": null, "POOLegalDescQtr": null, "POOLegalDescQtrQtr": null, "POOLegalDescRange": null, "POOLegalDescSection": null, "POOLegalDescTownship": null, "POOPredictiveServiceAreaID": "SA49", "POOProtectingAgency": "USFS", "POOProtectingUnit": "FLFNF", "POOState": "US-FL", "PredominantFuelGroup": null, "PredominantFuelModel": null, "PrimaryFuelModel": null, "SecondaryFuelModel": null, "TotalIncidentPersonnel": null, "UniqueFireIdentifier": "2026-FLFNF-002313", "WFDSSDecisionStatus": "No Decision", "EstimatedFinalCost": null, "OrganizationalAssessment": null, "StrategicDecisionPublishDate": null, "CreatedOnDateTime_dt": 1784922937760, "ModifiedOnDateTime_dt": 1785431256293, "ActiveFireCandidate": 1, "IsCpxChild": 0, "CpxName": null, "CpxID": null, "SourceGlobalID": "{BDCABBB8-243D-4ACA-99CC-5283F064FD2F}", "GlobalID": "03f94a14-c8b7-4b44-8275-e5e2730650a8", "IncidentComplexityLevel": null}}, {"type": "Feature", "id": 579463, "geometry": {"type": "Point", "coordinates": [-81.6201201985707, 29.1208054755851]}, "properties": {"OBJECTID": 579463, "SourceOID": 43304578, "ABCDMisc": null, "ADSPermissionState": "DEFAULT", "ContainmentDateTime": null, "ControlDateTime": null, "CreatedBySystem": "wildcade", "IncidentSize": 0.01, "DiscoveryAcres": 0.01, "DispatchCenterID": "FLFIC", "EstimatedCostToDate": null, "FinalAcres": null, "FinalFireReportApprovedByTitle": null, "FinalFireReportApprovedByUnit": null, "FinalFireReportApprovedDate": null, "FireBehaviorGeneral": null, "FireBehaviorGeneral1": null, "FireBehaviorGeneral2": null, "FireBehaviorGeneral3": null, "FireCause": "Undetermined", "FireCauseGeneral": null, "FireCauseSpecific": null, "FireCode": null, "FireDepartmentID": null, "FireDiscoveryDateTime": 1785092679000, "FireMgmtComplexity": null, "FireOutDateTime": null, "FireStrategyConfinePercent": null, "FireStrategyFullSuppPercent": null, "FireStrategyMonitorPercent": null, "FireStrategyPointZonePercent": null, "FSJobCode": "P8", "FSOverrideCode": "0805", "GACC": "SACC", "ICS209ReportDateTime": null, "ICS209ReportForTimePeriodFrom": null, "ICS209ReportForTimePeriodTo": null, "ICS209ReportStatus": null, "IncidentManagementOrganization": null, "IncidentName": "Beakman", "IncidentShortDescription": null, "IncidentTypeCategory": "WF", "IncidentTypeKind": "FI", "InitialLatitude": 29.119034, "InitialLongitude": -81.619231, "InitialResponseAcres": null, "InitialResponseDateTime": null, "IrwinID": "{DED0FD48-AB20-4890-BCE0-FD1CACE7C78B}", "IsFireCauseInvestigated": null, "IsFireCodeRequested": 0, "IsFSAssisted": 1, "IsMultiJurisdictional": 0, "IsReimbursable": 0, "IsTrespass": 0, "IsUnifiedCommand": null, "LocalIncidentIdentifier": "002330", "ModifiedBySystem": "wildcade", "PercentContained": null, "PercentPerimeterToBeContained": null, "POOCity": null, "POOCounty": "Lake", "POODispatchCenterID": "FLFIC", "POOFips": "12069", "POOJurisdictionalAgency": "USFS", "POOJurisdictionalUnit": "FLFNF", "POOJurisdictionalUnitParentUnit": null, "POOLandownerCategory": "USFS", "POOLandownerKind": "Federal", "POOLegalDescPrincipalMeridian": null, "POOLegalDescQtr": null, "POOLegalDescQtrQtr": null, "POOLegalDescRange": null, "POOLegalDescSection": null, "POOLegalDescTownship": null, "POOPredictiveServiceAreaID": "SA49", "POOProtectingAgency": "USFS", "POOProtectingUnit": "FLFNF", "POOState": "US-FL", "PredominantFuelGroup": null, "PredominantFuelModel": null, "PrimaryFuelModel": null, "SecondaryFuelModel": null, "TotalIncidentPersonnel": null, "UniqueFireIdentifier": "2026-FLFNF-002330", "WFDSSDecisionStatus": "No Decision", "EstimatedFinalCost": null, "OrganizationalAssessment": null, "StrategicDecisionPublishDate": null, "CreatedOnDateTime_dt": 1785110138980, "ModifiedOnDateTime_dt": 1785431116313, "ActiveFireCandidate": 1, "IsCpxChild": 0, "CpxName": null, "CpxID": null, "SourceGlobalID": "{082E04DA-0A34-4D6A-B908-B4AF07A11E28}", "GlobalID": "1565a67a-ef32-4161-ba5d-6d2b763768d1", "IncidentComplexityLevel": "Type 5 Incident"}}, {"type": "Feature", "id": 580578, "geometry": {"type": "Point", "coordinates": [-83.0725036292396, 29.4030611019511]}, "properties": {"OBJECTID": 580578, "SourceOID": 43305693, "ABCDMisc": null, "ADSPermissionState": "DEFAULT", "ContainmentDateTime": null, "ControlDateTime": null, "CreatedBySystem": "ics209", "IncidentSize": 125, "DiscoveryAcres": null, "DispatchCenterID": "FLFLSC", "EstimatedCostToDate": 0, "FinalAcres": null, "FinalFireReportApprovedByTitle": null, "FinalFireReportApprovedByUnit": null, "FinalFireReportApprovedDate": null, "FireBehaviorGeneral": "Moderate", "FireBehaviorGeneral1": null, "FireBehaviorGeneral2": null, "FireBehaviorGeneral3": null, "FireCause": "Natural", "FireCauseGeneral": null, "FireCauseSpecific": null, "FireCode": null, "FireDepartmentID": null, "FireDiscoveryDateTime": 1785161400000, "FireMgmtComplexity": null, "FireOutDateTime": null, "FireStrategyConfinePercent": 0, "FireStrategyFullSuppPercent": 100, "FireStrategyMonitorPercent": 0, "FireStrategyPointZonePercent": 0, "FSJobCode": null, "FSOverrideCode": null, "GACC": "SACC", "ICS209ReportDateTime": 1785441322000, "ICS209ReportForTimePeriodFrom": 1785420000000, "ICS209ReportForTimePeriodTo": 1785439800000, "ICS209ReportStatus": "U", "IncidentManagementOrganization": "Type 5 IC", "IncidentName": "Hudson 19- Dixie (15)", "IncidentShortDescription": "13 Miles SW from CHIEFLAND, FL", "IncidentTypeCategory": "WF", "IncidentTypeKind": "FI", "InitialLatitude": null, "InitialLongitude": null, "InitialResponseAcres": null, "InitialResponseDateTime": null, "IrwinID": "{316B5D0A-BCB7-4506-A340-32BE3F696127}", "IsFireCauseInvestigated": null, "IsFireCodeRequested": 0, "IsFSAssisted": null, "IsMultiJurisdictional": null, "IsReimbursable": null, "IsTrespass": null, "IsUnifiedCommand": 0, "LocalIncidentIdentifier": "260500267", "ModifiedBySystem": "ics209", "PercentContained": 70, "PercentPerimeterToBeContained": 100, "POOCity": "Fowlers Bluff", "POOCounty": "Dixie", "POODispatchCenterID": "FLFLSC", "POOFips": "12029", "POOJurisdictionalAgency": null, "POOJurisdictionalUnit": null, "POOJurisdictionalUnitParentUnit": null, "POOLandownerCategory": "Private", "POOLandownerKind": "Private", "POOLegalDescPrincipalMeridian": null, "POOLegalDescQtr": null, "POOLegalDescQtrQtr": null, "POOLegalDescRange": null, "POOLegalDescSection": null, "POOLegalDescTownship": null, "POOPredictiveServiceAreaID": "SA48", "POOProtectingAgency": "DVF", "POOProtectingUnit": "FLFLS", "POOState": "US-FL", "PredominantFuelGroup": null, "PredominantFuelModel": null, "PrimaryFuelModel": "Hardwood Litter", "SecondaryFuelModel": "Closed Timber Litter", "TotalIncidentPersonnel": 6, "UniqueFireIdentifier": "2026-FLFLS-260500267", "WFDSSDecisionStatus": "No Decision", "EstimatedFinalCost": null, "OrganizationalAssessment": null, "StrategicDecisionPublishDate": null, "CreatedOnDateTime_dt": 1785421309457, "ModifiedOnDateTime_dt": 1785441322670, "ActiveFireCandidate": 1, "IsCpxChild": 0, "CpxName": null, "CpxID": null, "SourceGlobalID": "{063648F0-A015-4B28-A54B-9DCF2200B854}", "GlobalID": "b4291f73-ccb8-4ead-8018-a1a1bd475bd1", "IncidentComplexityLevel": "Type 5 Incident"}}, {"type": "Feature", "id": 580164, "geometry": {"type": "Point", "coordinates": [-80.8119472740787, 26.260004795612]}, "properties": {"OBJECTID": 580164, "SourceOID": 43305276, "ABCDMisc": null, "ADSPermissionState": "DEFAULT", "ContainmentDateTime": null, "ControlDateTime": null, "CreatedBySystem": "ics209", "IncidentSize": 3900, "DiscoveryAcres": null, "DispatchCenterID": "FLFLSC", "EstimatedCostToDate": 0, "FinalAcres": null, "FinalFireReportApprovedByTitle": null, "FinalFireReportApprovedByUnit": null, "FinalFireReportApprovedDate": null, "FireBehaviorGeneral": "Moderate", "FireBehaviorGeneral1": null, "FireBehaviorGeneral2": "Creeping", "FireBehaviorGeneral3": "Flanking", "FireCause": "Natural", "FireCauseGeneral": null, "FireCauseSpecific": null, "FireCode": null, "FireDepartmentID": null, "FireDiscoveryDateTime": 1785245700000, "FireMgmtComplexity": null, "FireOutDateTime": null, "FireStrategyConfinePercent": 0, "FireStrategyFullSuppPercent": 100, "FireStrategyMonitorPercent": 0, "FireStrategyPointZonePercent": 0, "FSJobCode": null, "FSOverrideCode": null, "GACC": "SACC", "ICS209ReportDateTime": 1785357266000, "ICS209ReportForTimePeriodFrom": 1785326400000, "ICS209ReportForTimePeriodTo": 1785355140000, "ICS209ReportStatus": "U", "IncidentManagementOrganization": "Type 5 IC", "IncidentName": "HOLEY LAND (6)", "IncidentShortDescription": "53 Miles NW from MIA AIRPORT, FL", "IncidentTypeCategory": "WF", "IncidentTypeKind": "FI", "InitialLatitude": null, "InitialLongitude": null, "InitialResponseAcres": null, "InitialResponseDateTime": null, "IrwinID": "{C3BDB4E8-DB16-49BE-9FD4-C8D6E7A042CA}", "IsFireCauseInvestigated": null, "IsFireCodeRequested": 0, "IsFSAssisted": null, "IsMultiJurisdictional": null, "IsReimbursable": null, "IsTrespass": null, "IsUnifiedCommand": 0, "LocalIncidentIdentifier": "261800117", "ModifiedBySystem": "ics209", "PercentContained": 20, "PercentPerimeterToBeContained": 100, "POOCity": "FLORIDA", "POOCounty": "Broward", "POODispatchCenterID": "FLFLSC", "POOFips": "12011", "POOJurisdictionalAgency": "DVF", "POOJurisdictionalUnit": "FLFLS", "POOJurisdictionalUnitParentUnit": null, "POOLandownerCategory": "State", "POOLandownerKind": "State", "POOLegalDescPrincipalMeridian": null, "POOLegalDescQtr": null, "POOLegalDescQtrQtr": null, "POOLegalDescRange": null, "POOLegalDescSection": null, "POOLegalDescTownship": null, "POOPredictiveServiceAreaID": "SA50", "POOProtectingAgency": "DVF", "POOProtectingUnit": "FLFLS", "POOState": "US-FL", "PredominantFuelGroup": null, "PredominantFuelModel": null, "PrimaryFuelModel": "Tall Grass (2.5 feet)", "SecondaryFuelModel": null, "TotalIncidentPersonnel": 2, "UniqueFireIdentifier": "2026-FLFLS-261800117", "WFDSSDecisionStatus": "No Decision", "EstimatedFinalCost": null, "OrganizationalAssessment": null, "StrategicDecisionPublishDate": null, "CreatedOnDateTime_dt": 1785282800707, "ModifiedOnDateTime_dt": 1785357265960, "ActiveFireCandidate": 1, "IsCpxChild": 0, "CpxName": null, "CpxID": null, "SourceGlobalID": "{6B00F9C4-D3D6-4455-90D8-B899DC9C68FE}", "GlobalID": "b9000895-dd24-4316-911e-3b45435e2736", "IncidentComplexityLevel": "Type 5 Incident"}}, {"type": "Feature", "id": 580668, "geometry": {"type": "Point", "coordinates": [-84.4655600671833, 30.3853386879718]}, "properties": {"OBJECTID": 580668, "SourceOID": 43305784, "ABCDMisc": null, "ADSPermissionState": "DEFAULT", "ContainmentDateTime": null, "ControlDateTime": null, "CreatedBySystem": "wildcade", "IncidentSize": 30, "DiscoveryAcres": 10, "DispatchCenterID": "FLFIC", "EstimatedCostToDate": null, "FinalAcres": null, "FinalFireReportApprovedByTitle": null, "FinalFireReportApprovedByUnit": null, "FinalFireReportApprovedDate": null, "FireBehaviorGeneral": null, "FireBehaviorGeneral1": null, "FireBehaviorGeneral2": null, "FireBehaviorGeneral3": null, "FireCause": "Undetermined", "FireCauseGeneral": null, "FireCauseSpecific": null, "FireCode": null, "FireDepartmentID": null, "FireDiscoveryDateTime": 1785435724000, "FireMgmtComplexity": null, "FireOutDateTime": null, "FireStrategyConfinePercent": null, "FireStrategyFullSuppPercent": null, "FireStrategyMonitorPercent": null, "FireStrategyPointZonePercent": null, "FSJobCode": null, "FSOverrideCode": null, "GACC": "SACC", "ICS209ReportDateTime": null, "ICS209ReportForTimePeriodFrom": null, "ICS209ReportForTimePeriodTo": null, "ICS209ReportStatus": null, "IncidentManagementOrganization": null, "IncidentName": "Bravo", "IncidentShortDescription": null, "IncidentTypeCategory": "WF", "IncidentTypeKind": "FI", "InitialLatitude": 30.393303, "InitialLongitude": -84.465453, "InitialResponseAcres": null, "InitialResponseDateTime": null, "IrwinID": "{A559CD17-6F02-4997-98E0-C317A890F8E2}", "IsFireCauseInvestigated": null, "IsFireCodeRequested": 0, "IsFSAssisted": 1, "IsMultiJurisdictional": 0, "IsReimbursable": 0, "IsTrespass": 0, "IsUnifiedCommand": null, "LocalIncidentIdentifier": "002369", "ModifiedBySystem": "wildcade", "PercentContained": null, "PercentPerimeterToBeContained": null, "POOCity": null, "POOCounty": "Leon", "POODispatchCenterID": "FLFIC", "POOFips": "12073", "POOJurisdictionalAgency": "USFS", "POOJurisdictionalUnit": "FLFNF", "POOJurisdictionalUnitParentUnit": null, "POOLandownerCategory": "USFS", "POOLandownerKind": "Federal", "POOLegalDescPrincipalMeridian": null, "POOLegalDescQtr": null, "POOLegalDescQtrQtr": null, "POOLegalDescRange": null, "POOLegalDescSection": null, "POOLegalDescTownship": null, "POOPredictiveServiceAreaID": "SA47", "POOProtectingAgency": "USFS", "POOProtectingUnit": "FLFNF", "POOState": "US-FL", "PredominantFuelGroup": null, "PredominantFuelModel": null, "PrimaryFuelModel": null, "SecondaryFuelModel": null, "TotalIncidentPersonnel": null, "UniqueFireIdentifier": "2026-FLFNF-002369", "WFDSSDecisionStatus": "No Decision", "EstimatedFinalCost": null, "OrganizationalAssessment": null, "StrategicDecisionPublishDate": null, "CreatedOnDateTime_dt": 1785437677563, "ModifiedOnDateTime_dt": 1785445527380, "ActiveFireCandidate": 1, "IsCpxChild": 0, "CpxName": null, "CpxID": null, "SourceGlobalID": "{E7C29A6B-992E-4EA7-A39E-28D0D6D6A9B3}", "GlobalID": "383861be-ac73-455d-ba5b-59af123bb00a", "IncidentComplexityLevel": "Type 5 Incident"}}], "generated_at": "2026-07-30T21:35:00.502981Z"}